LEMUR-2-ARIANNA         
1 62699U 25009CU  26154.17114125  .00010251  00000+0  78085-3 0  9997
2 62699  97.6880 235.6688 0002702 160.7900 199.3427 15.02254576 75457
LEMUR-2-ALISIA          
1 62706U 25009DB  26154.21835125  .00009549  00000+0  72211-3 0  9994
2 62706  97.6976 236.4830 0000380 201.7703 158.3506 15.02553275 98060
LEMUR-2-ROUNDTRIPPER    
1 62711U 25009DG  26154.18575765  .00010135  00000+0  74639-3 0  9996
2 62711  97.7227 236.8882 0004102 176.1751 183.9507 15.03538335 75523
LEMUR-2-MYNAMEISJEFF    
1 62712U 25009DH  26154.45048997  .00010707  00000+0  78779-3 0  9993
2 62712  97.7279 237.5244 0002376 207.3257 152.7843 15.03560091 75565
LEMUR-2-LEIA-PHILIP     
1 63246U 25052AN  26154.57033669  .00002017  00000+0  17908-3 0  9999
2 63246  97.6839  46.7497 0002256 274.8690  85.2275 14.97270896 66636
LEMUR-2-LIA-MARTIN      
1 63248U 25052AQ  26154.64627829  .00005944  00000+0  51239-3 0  9993
2 63248  97.6900  47.2792 0001966 193.7359 166.3810 14.97674632 66653
LEMUR-2-DELOITTE-1      
1 63259U 25052BB  26154.48725501  .00004167  00000+0  36241-3 0  9995
2 63259  97.6927  47.4525 0002061 117.8333 242.3098 14.97496316 66649
LEMUR-2-EMERSONROSE     
1 63261U 25052BD  26154.60948313  .00003878  00000+0  32493-3 0  9993
2 63261  97.6922  48.1050 0003000  80.3818 279.7744 14.98988004 66704
LEMUR-2-MARACHE-FRAN    
1 63262U 25052BE  26154.59381529  .00007192  00000+0  58347-3 0  9991
2 63262  97.6941  48.3767 0006491  64.4734 295.7160 14.99944027 66720
LEMUR-2-THEFALCONER     
1 63264U 25052BG  26154.64540634  .00004720  00000+0  41202-3 0  9999
2 63264  97.6871  47.2416 0003552  68.9762 291.1839 14.97286597 66663
LEMUR-2-UNTITLED-SC     
1 63351U 25061A   26153.74127211  .00004603  00000+0  26090-3 0  9996
2 63351  97.5632 129.2105 0017583 319.3416  40.6501 15.13366349 65405
LEMUR-2-ESPERANZA       
1 63352U 25061B   26154.44656555  .00003752  00000+0  21282-3 0  9995
2 63352  97.5640 130.0007 0017038 316.2764  43.7116 15.13467094 65510
LEMUR-2-KREMPEL-BRO2    
1 63353U 25061C   26154.74187176  .00004793  00000+0  26747-3 0  9994
2 63353  97.5687 130.8100 0017791 306.7841  53.1757 15.13900723 65573
LEMUR-2-THERMORAPTOR    
1 63354U 25061D   26154.79072668  .00004582  00000+0  25534-3 0  9998
2 63354  97.5694 130.9314 0017383 305.7340  54.2274 15.13979874 65580
LEMUR-2-NEUROSPICY      
1 63355U 25061E   26154.43297257  .00004338  00000+0  24142-3 0  9996
2 63355  97.5616 130.2128 0015369 311.3082  48.6825 15.14088834 65531
LEMUR-2-TILLINFINITY    
1 63356U 25061F   26154.73780320  .00004738  00000+0  25890-3 0  9993
2 63356  97.5604 130.7967 0016357 296.8475  63.1084 15.14680244 65606
LEMUR-2-KREMPEL-BRO1    
1 63357U 25061G   26154.70954543  .00003985  00000+0  21951-3 0  9998
2 63357  97.5605 130.6885 0017045 298.1961  61.7549 15.14484842 65590
LEMUR-2-LANGER2SPACE    
1 63358U 25061H   26154.46902708  .00004548  00000+0  25228-3 0  9995
2 63358  97.5611 130.2690 0015293 309.4835  50.5043 15.14181758 65547
LEMUR-2-BALTO           
1 63395U 25052BH  26154.64504795  .00006128  00000+0  49811-3 0  9990
2 63395  97.6879  48.4160 0006234  91.6016 268.5922 14.99932268 66734
LEMUR-2-KRISH           
1 64561U 25135AK  26154.89899576  .00005021  00000+0  45186-3 0  9991
2 64561  97.7733 269.8701 0001222  98.2573 261.8786 14.96076358 51939
LEMUR-2-HUBBLE-4        
1 64565U 25135AP  26154.86787978  .00002438  00000+0  23907-3 0  9990
2 64565  97.7689 268.9370 0001976  16.3638 343.7645 14.93158731 51885
LEMUR-2-SEJONG-2        
1 64586U 25135BL  26154.93343862  .00005875  00000+0  52087-3 0  9990
2 64586  97.7679 270.0471 0004814  32.8681 327.2839 14.96582884 51962
LEMUR-2-HUBBLE-5        
1 64840U 25135BT  26154.76332221  .00001312  00000+0  12814-3 0  9997
2 64840  97.7709 269.4455 0006211  36.4294 323.7348 14.94092972 51908
LEMUR-2-KARENDARRELL    
1 64841U 25135BU  26154.57651515  .00008963  00000+0  72634-3 0  9992
2 64841  97.7678 270.8110 0008808 255.0444 104.9804 14.99903844 51975
LEMUR-2-LUCILLE-ROSE    
1 65403U 25135BV  26154.28390775  .00008059  00000+0  65252-3 0  9997
2 65403  97.7772 270.5195 0010643 337.2448  22.8302 14.99959954 46554
LEMUR-2-AFFIE-WAUWIE    
1 66295U 25248C   26152.48471986  .00015776  00000+0  59909-3 0  9992
2 66295  45.3867 200.0340 0009699 347.2049  12.8593 15.26700156 32190
LEMUR-2-DEANANDMAEVE    
1 66678U 25276N   26154.15762047  .00008155  00000+0  38644-3 0  9991
2 66678  97.4215 227.8684 0006908  57.9653 302.2252 15.19547134 28284
LEMUR-2-STAS-GORBUK     
1 66686U 25276W   26154.63004521  .00006949  00000+0  33293-3 0  9993
2 66686  97.4246 228.3879 0006349  56.5793 303.6049 15.19227141 28358
LEMUR-2-TEODOR          
1 66768U 25276DG  26154.16811662  .00006624  00000+0  30275-3 0  9991
2 66768  97.4150 228.1524 0001667 127.2567 232.8821 15.20887535 28319
